[{"OBJECT_NAME":"IRIDIUM 167","OBJECT_ID":"2019-002K","EPOCH":"2026-03-09T22:39:34.779456","MEAN_MOTION":14.34218835,"ECCENTRICITY":0.00018219,"INCLINATION":86.3972,"RA_OF_ASC_NODE":35.0554,"ARG_OF_PERICENTER":93.0141,"MEAN_ANOMALY":267.1263,"EPHEMERIS_TYPE":0,"CLASSIFICATION_TYPE":"U","NORAD_CAT_ID":43931,"ELEMENT_SET_NO":999,"REV_AT_EPOCH":37473,"BSTAR":-8.039993e-6,"MEAN_MOTION_DOT":-3.0e-8,"MEAN_MOTION_DDOT":0},{"OBJECT_NAME":"COSMOS 2251 DEB","OBJECT_ID":"1993-036GW","EPOCH":"2026-03-09T16:26:07.829376","MEAN_MOTION":14.42337666,"ECCENTRICITY":0.00386545,"INCLINATION":74.0153,"RA_OF_ASC_NODE":168.7415,"ARG_OF_PERICENTER":236.3191,"MEAN_ANOMALY":123.4277,"EPHEMERIS_TYPE":0,"CLASSIFICATION_TYPE":"U","NORAD_CAT_ID":34011,"ELEMENT_SET_NO":999,"REV_AT_EPOCH":89169,"BSTAR":0.00098707652,"MEAN_MOTION_DOT":3.264e-5,"MEAN_MOTION_DDOT":0}]
